H1 CPF 01  gfz 2021 01 15 01  5151 terrasarx 
H2 0702601  6201 31698    2021 01 15 00 59 42 2021 01 20 00 00 42   120 1 1  0 0 0
H9
10 0 59229  53262.000000  0   -3517402.588  -2948806.775  -5144110.871
10 0 59229  53382.000000  0   -3111250.170  -2333097.887  -5692975.566
10 0 59229  53502.000000  0   -2640038.571  -1684574.993  -6142331.931
10 0 59229  53622.000000  0   -2111519.341  -1015589.849  -6484417.811
10 0 59229  53742.000000  0   -1534633.580   -338679.599  -6713337.420
10 0 59229  53862.000000  0    -919359.850    333664.780  -6825151.026
10 0 59229  53982.000000  0    -276544.400    989223.037  -6817935.107
10 0 59229  54102.000000  0     382285.862   1616262.168  -6691811.721
10 0 59229  54222.000000  0    1045123.830   2203740.635  -6448948.068
10 0 59229  54342.000000  0    1699697.037   2741499.899  -6093524.549
10 0 59229  54462.000000  0    2333690.342   3220439.006  -5631670.083
10 0 59229  54582.000000  0    2934974.550   3632669.060  -5071365.873
10 0 59229  54702.000000  0    3491836.766   3971646.266  -4422319.363
10 0 59229  54822.000000  0    3993210.135   4232281.631  -3695807.188
10 0 59229  54942.000000  0    4428897.592   4411023.574  -2904487.998
10 0 59229  55062.000000  0    4789783.927   4505910.895  -2062186.752
10 0 59229  55182.000000  0    5068031.129   4516594.597  -1183655.652
10 0 59229  55302.000000  0    5257252.675   4444327.533   -284313.466
10 0 59229  55422.000000  0    5352659.685   4291921.612    620030.055
10 0 59229  55542.000000  0    5351177.377   4063674.095   1513458.629
10 0 59229  55662.000000  0    5251529.078   3765262.926   2380238.108
10 0 59229  55782.000000  0    5054282.841   3403613.670   3205103.117
10 0 59229  55902.000000  0    4761859.103   2986742.418   3973533.655
10 0 59229  56022.000000  0    4378500.938   2523577.942   4672015.619
10 0 59229  56142.000000  0    3910209.260   2023768.987   5288279.310
10 0 59229  56262.000000  0    3364641.660   1497482.214   5811515.826
10 0 59229  56382.000000  0    2750979.132    955192.613   6232562.254
10 0 59229  56502.000000  0    2079765.455    407473.295   6544054.711
10 0 59229  56622.000000  0    1362722.748   -135209.410   6740550.600
10 0 59229  56742.000000  0     612544.501   -662695.034   6818620.225
10 0 59229  56862.000000  0    -157330.868  -1165319.279   6776902.579
10 0 59229  56982.000000  0    -932960.714  -1634090.443   6616126.859
10 0 59229  57102.000000  0   -1700149.941  -2060850.332   6339099.289
10 0 59229  57222.000000  0   -2444708.455  -2438415.584   5950656.339
10 0 59229  57342.000000  0   -3152712.589  -2760699.514   5457588.191
10 0 59229  57462.000000  0   -3810769.950  -3022813.815   4868527.523
10 0 59229  57582.000000  0   -4406277.603  -3221144.959   4193802.252
10 0 59229  57702.000000  0   -4927668.620  -3353404.451   3445258.168
10 0 59229  57822.000000  0   -5364642.876  -3418652.186   2636053.724
10 0 59229  57942.000000  0   -5708378.149  -3417293.166   1780429.129
10 0 59229  58062.000000  0   -5951714.855  -3351046.436    893451.343
10 0 59229  58182.000000  0   -6089308.634  -3222885.512     -9258.056
10 0 59229  58302.000000  0   -6117747.907  -3036953.183   -911805.955
10 0 59229  58422.000000  0   -6035632.733  -2798452.157  -1798317.653
10 0 59229  58542.000000  0   -5843610.897  -2513513.720  -2653224.925
10 0 59229  58662.000000  0   -5544373.233  -2189049.609  -3461544.723
10 0 59229  58782.000000  0   -5142608.615  -1832590.663  -4209144.579
10 0 59229  58902.000000  0   -4644920.359  -1452116.366  -4882988.505
10 0 59229  59022.000000  0   -4059706.975  -1055879.621  -5471360.235
10 0 59229  59142.000000  0   -3397009.557   -652230.416  -5964059.140
10 0 59229  59262.000000  0   -2668331.161   -249443.041  -6352566.245
10 0 59229  59382.000000  0   -1886432.251    144449.687  -6630179.896
10 0 59229  59502.000000  0   -1065105.286    521811.648  -6792119.881
10 0 59229  59622.000000  0    -218934.354    875546.591  -6835600.384
10 0 59229  59742.000000  0     636957.866   1199228.042  -6759871.953
10 0 59229  59862.000000  0    1487172.820   1487212.109  -6566234.853
10 0 59229  59982.000000  0    2316307.958   1734734.767  -6258020.479
10 0 59229  60102.000000  0    3109230.957   1937990.193  -5840539.844
10 0 59229  60222.000000  0    3851352.421   2094188.866  -5321000.204
10 0 59229  60342.000000  0    4528893.420   2201595.494  -4708392.484
10 0 59229  60462.000000  0    5129145.498   2259546.147  -4013346.916
10 0 59229  60582.000000  0    5640715.416   2268443.069  -3247957.728
10 0 59229  60702.000000  0    6053750.049   2229727.436  -2425580.775
10 0 59229  60822.000000  0    6360137.944   2145830.562  -1560604.487
10 0 59229  60942.000000  0    6553678.875   2020103.676   -668197.356
10 0 59229  61062.000000  0    6630218.767   1856727.522    235961.879
10 0 59229  61182.000000  0    6587742.988   1660603.527   1135967.240
10 0 59229  61302.000000  0    6426428.466   1437230.672   2015971.579
10 0 59229  61422.000000  0    6148653.072   1192569.488   2860475.730
10 0 59229  61542.000000  0    5758958.245    932896.994   3654609.612
10 0 59229  61662.000000  0    5263968.605    664657.083   4384400.763
10 0 59229  61782.000000  0    4672270.004    394309.826   5037022.278
10 0 59229  61902.000000  0    3994251.843    128184.095   5601019.056
10 0 59229  62022.000000  0    3241913.748   -127664.781   6066506.648
10 0 59229  62142.000000  0    2428644.516   -367586.413   6425338.135
10 0 59229  62262.000000  0    1568978.947   -586455.103   6671240.872
10 0 59229  62382.000000  0     678334.455   -779776.027   6799921.476
10 0 59229  62502.000000  0    -227268.123   -943775.446   6809135.609
10 0 59229  62622.000000  0   -1131492.381  -1075473.404   6698723.530
10 0 59229  62742.000000  0   -2017979.786  -1172737.946   6470611.905
10 0 59229  62862.000000  0   -2870643.624  -1234319.184   6128781.675
10 0 59229  62982.000000  0   -3673960.294  -1259863.382   5679204.851
10 0 59229  63102.000000  0   -4413255.999  -1249908.007   5129747.461
10 0 59229  63222.000000  0   -5074981.007  -1205857.161   4490037.724
10 0 59229  63342.000000  0   -5646965.880  -1129936.755   3771301.428
10 0 59229  63462.000000  0   -6118653.361  -1025130.641   2986167.272
10 0 59229  63582.000000  0   -6481302.331   -895099.290   2148446.866
10 0 59229  63702.000000  0   -6728161.236   -744082.724   1272890.045
10 0 59229  63822.000000  0   -6854601.902   -576789.854    374918.321
10 0 59229  63942.000000  0   -6858210.368   -398276.962   -529654.831
10 0 59229  64062.000000  0   -6738833.669   -213818.303  -1424911.592
10 0 59229  64182.000000  0   -6498579.786    -28772.277  -2295118.272
10 0 59229  64302.000000  0   -6141774.541    151552.564  -3125007.773
10 0 59229  64422.000000  0   -5674873.973    322029.788  -3900053.668
10 0 59229  64542.000000  0   -5106334.054    477841.474  -4606725.545
10 0 59229  64662.000000  0   -4446444.228    614595.316  -5232722.125
10 0 59229  64782.000000  0   -3707128.910    728430.550  -5767178.181
10 0 59229  64902.000000  0   -2901722.389    816109.328  -6200843.459
10 0 59229  65022.000000  0   -2044722.536    875092.426  -6526230.471
10 0 59229  65142.000000  0   -1151528.516    903598.995  -6737733.015
10 0 59229  65262.000000  0    -238165.605    900648.885  -6831711.937
10 0 59229  65382.000000  0     678995.721    866086.639  -6806549.765
10 0 59229  65502.000000  0    1583525.148    800587.152  -6662677.835
10 0 59229  65622.000000  0    2459221.522    705643.074  -6402570.666
10 0 59229  65742.000000  0    3290397.532    583534.185  -6030707.700
10 0 59229  65862.000000  0    4062157.194    437278.849  -5553503.288
10 0 59229  65982.000000  0    4760661.618    270567.609  -4979206.753
10 0 59229  66102.000000  0    5373381.196     87681.348  -4317771.778
10 0 59229  66222.000000  0    5889328.111   -106606.054  -3580693.814
10 0 59229  66342.000000  0    6299263.031   -307138.269  -2780818.817
10 0 59229  66462.000000  0    6595873.350   -508498.414  -1932125.532
10 0 59229  66582.000000  0    6773916.776   -705139.306  -1049482.225
10 0 59229  66702.000000  0    6830325.253   -891518.644   -148383.910
10 0 59229  66822.000000  0    6764267.116  -1062236.399    755324.733
10 0 59229  66942.000000  0    6577164.502  -1212170.819   1645735.913
10 0 59229  67062.000000  0    6272666.013  -1336609.702   2507167.589
10 0 59229  67182.000000  0    5856572.670  -1431372.330   3324449.464
10 0 59229  67302.000000  0    5336721.284  -1492919.774   4083196.467
10 0 59229  67422.000000  0    4722828.359  -1518451.584   4770066.332
10 0 59229  67542.000000  0    4026298.726  -1505984.583   5372995.219
10 0 59229  67662.000000  0    3260004.631  -1454412.929   5881408.514
10 0 59229  67782.000000  0    2438038.738  -1363549.144   6286402.332
10 0 59229  67902.000000  0    1575449.047  -1234144.892   6580893.439
10 0 59229  68022.000000  0     687959.076  -1067891.307   6759737.856
10 0 59229  68142.000000  0    -208321.372   -867397.823   6819814.824
10 0 59229  68262.000000  0   -1097188.383   -636151.053   6760076.460
10 0 59229  68382.000000  0   -1962635.281   -378454.343   6581564.482
10 0 59229  68502.000000  0   -2789139.279    -99348.174   6287393.279
10 0 59229  68622.000000  0   -3561939.710    195487.027   5882700.178
10 0 59229  68742.000000  0   -4267304.413    499844.041   5374561.891
10 0 59229  68862.000000  0   -4892778.982    807116.272   4771876.714
10 0 59229  68982.000000  0   -5427414.290   1110437.284   4085214.445
10 0 59229  69102.000000  0   -5861966.736   1402829.840   3326634.271
10 0 59229  69222.000000  0   -6189066.961   1677361.080   2509474.981
10 0 59229  69342.000000  0   -6403354.027   1927300.211   1648119.639
10 0 59229  69462.000000  0   -6501571.452   2146275.280    757738.525
10 0 59229  69582.000000  0   -6482620.780   2328425.151   -145985.728
10 0 59229  69702.000000  0   -6347570.967   2468541.487  -1047143.155
99
